$$SOE
2460147.500000000, A.D. 2023-Jul-22 00:00:00.0000, -2.130889214473174E+08, -4.413480607620445E+08, -4.108772593941540E+06,
2460154.500000000, A.D. 2023-Jul-29 00:00:00.0000, -2.046170941997047E+08, -4.454194075093077E+08, -2.613592574655235E+06,
2460161.500000000, A.D. 2023-Aug-05 00:00:00.0000, -1.960609854428337E+08, -4.493071720991556E+08, -1.117333513258219E+06,
2460168.500000000, A.D. 2023-Aug-12 00:00:00.0000, -1.874241468380212E+08, -4.530098053598070E+08, 3.793878459315002E+05,
2460175.500000000, A.D. 2023-Aug-19 00:00:00.0000, -1.787101528767540E+08, -4.565258160390837E+08, 1.875954866098762E+06,
2460182.500000000, A.D. 2023-Aug-26 00:00:00.0000, -1.699226005178902E+08, -4.598537708088717E+08, 3.371751082522511E+06,
2460189.500000000, A.D. 2023-Sep-02 00:00:00.0000, -1.610651088588160E+08, -4.629922943635534E+08, 4.866160262323201E+06,
2460196.500000000, A.D. 2023-Sep-09 00:00:00.0000, -1.521413188025794E+08, -4.659400696542293E+08, 6.358566452904403E+06,
2460203.500000000, A.D. 2023-Sep-16 00:00:00.0000, -1.431548925514207E+08, -4.686958383173282E+08, 7.848353999207348E+06,
2460210.500000000, A.D. 2023-Sep-23 00:00:00.0000, -1.341095125091964E+08, -4.712584010112664E+08, 9.334907515351951E+06,
2460217.500000000, A.D. 2023-Sep-30 00:00:00.0000, -1.250088799311718E+08, -4.736266164705939E+08, 1.081761193946534E+07,
2460224.500000000, A.D. 2023-Oct-07 00:00:00.0000, -1.158567156735270E+08, -4.757993998200226E+08, 1.229585284352666E+07,
2460231.500000000, A.D. 2023-Oct-14 00:00:00.0000, -1.066567620007257E+08, -4.777757234613248E+08, 1.376901663232759E+07,
2460238.500000000, A.D. 2023-Oct-21 00:00:00.0000, -9.741278222049141E+07, -4.795546189314697E+08, 1.523649046673357E+07,
2460245.500000000, A.D. 2023-Oct-28 00:00:00.0000, -8.812855956979477E+07, -4.811351774729830E+08, 1.669766222711167E+07,
2460252.500000000, A.D. 2023-Nov-04 00:00:00.0000, -7.880789660095721E+07, -4.825165500872300E+08, 1.815192056915793E+07,
2460259.500000000, A.D. 2023-Nov-11 00:00:00.0000, -6.945461488917977E+07, -4.836979476704049E+08, 1.959865500730005E+07,
2460266.500000000, A.D. 2023-Nov-18 00:00:00.0000, -6.007255484066418E+07, -4.846786412963034E+08, 2.103725600069961E+07,
2460273.500000000, A.D. 2023-Nov-25 00:00:00.0000, -5.066557552690335E+07, -4.854579626231660E+08, 2.246711503736061E+07,
2460280.500000000, A.D. 2023-Dec-02 00:00:00.0000, -4.123755451522623E+07, -4.860353044360030E+08, 2.388762471315914E+07,
2460287.500000000, A.D. 2023-Dec-09 00:00:00.0000, -3.179238761618817E+07, -4.864101213838911E+08, 2.529817879417717E+07,
2460294.500000000, A.D. 2023-Dec-16 00:00:00.0000, -2.233398825893787E+07, -4.865819309003288E+08, 2.669817223732552E+07,
2460301.500000000, A.D. 2023-Dec-23 00:00:00.0000, -1.286628614496207E+07, -4.865503136196815E+08, 2.808700119374460E+07,
2460308.500000000, A.D. 2023-Dec-30 00:00:00.0000, -3.393226519347460E+06, -4.863149122403870E+08, 2.946406320380157E+07,
2460315.500000000, A.D. 2024-Jan-06 00:00:00.0000, 6.081228169469510E+06, -4.858754311947635E+08, 3.082875755325213E+07,
2460322.500000000, A.D. 2024-Jan-13 00:00:00.0000, 1.555309739642427E+07, -4.852316389319360E+08, 3.218048535173616E+07,
2460329.500000000, A.D. 2024-Jan-20 00:00:00.0000, 2.501838369862875E+07, -4.843833697301731E+08, 3.351864947350556E+07,
2460336.500000000, A.D. 2024-Jan-27 00:00:00.0000, 3.447307379901765E+07, -4.833305243873018E+08, 3.484265459992895E+07,
2460343.500000000, A.D. 2024-Feb-03 00:00:00.0000, 4.391313928780212E+07, -4.820730707381370E+08, 3.615190732568717E+07,
2460350.500000000, A.D. 2024-Feb-10 00:00:00.0000, 5.333453714031623E+07, -4.806110442900758E+08, 3.744581627957016E+07,
2460357.500000000, A.D. 2024-Feb-17 00:00:00.0000, 6.273321021097397E+07, -4.789445489685539E+08, 3.872379224790975E+07,
2460364.500000000, A.D. 2024-Feb-24 00:00:00.0000, 7.210508774027348E+07, -4.770737579565381E+08, 3.998524829855663E+07,
2460371.500000000, A.D. 2024-Mar-02 00:00:00.0000, 8.144608590555842E+07, -4.749989146590178E+08, 4.122959989993945E+07,
2460378.500000000, A.D. 2024-Mar-09 00:00:00.0000, 9.075210855631979E+07, -4.727203338537400E+08, 4.245626501720276E+07,
2460385.500000000, A.D. 2024-Mar-16 00:00:00.0000, 1.000190485319208E+08, -4.702384028298559E+08, 4.366466416525966E+07,
2460392.500000000, A.D. 2024-Mar-23 00:00:00.0000, 1.092427894609554E+08, -4.675535814052365E+08, 4.485422051906583E+07,
2460399.500000000, A.D. 2024-Mar-30 00:00:00.0000, 1.184192058034822E+08, -4.646664008493918E+08, 4.602436028478664E+07,
2460406.500000000, A.D. 2024-Apr-06 00:00:00.0000, 1.275441613942962E+08, -4.615774650792947E+08, 4.717451303341943E+07,
2460413.500000000, A.D. 2024-Apr-13 00:00:00.0000, 1.366135100406739E+08, -4.582874532917463E+08, 4.830411173990144E+07,
2460420.500000000, A.D. 2024-Apr-20 00:00:00.0000, 1.456230972243170E+08, -4.547971213561583E+08, 4.941259283437529E+07,
2460427.500000000, A.D. 2024-Apr-27 00:00:00.0000, 1.545687613918889E+08, -4.511073025288655E+08, 5.049939635937034E+07,
2460434.500000000, A.D. 2024-May-04 00:00:00.0000, 1.634463349235720E+08, -4.472189081912023E+08, 5.156396616769569E+07,
2460441.500000000, A.D. 2024-May-11 00:00:00.0000, 1.722516450197049E+08, -4.431329287115746E+08, 5.260575013116442E+07,
2460448.500000000, A.D. 2024-May-18 00:00:00.0000, 1.809805145893010E+08, -4.388504344080558E+08, 5.362420035466790E+07,
2460455.500000000, A.D. 2024-May-25 00:00:00.0000, 1.896287631671203E+08, -4.343725766164774E+08, 5.461877339298685E+07,
2460462.500000000, A.D. 2024-Jun-01 00:00:00.0000, 1.981922079214881E+08, -4.297005889191860E+08, 5.558893046042985E+07,
2460469.500000000, A.D. 2024-Jun-08 00:00:00.0000, 2.066666650019491E+08, -4.248357885555696E+08, 5.653413760930839E+07,
2460476.500000000, A.D. 2024-Jun-15 00:00:00.0000, 2.150479516290026E+08, -4.197795774681063E+08, 5.745386588589981E+07,
2460483.500000000, A.D. 2024-Jun-22 00:00:00.0000, 2.233318879227771E+08, -4.145334418078755E+08, 5.834759165293197E+07,
2460490.500000000, A.D. 2024-Jun-29 00:00:00.0000, 2.315142963502796E+08, -4.090989517184371E+08, 5.921479712481594E+07,
2460497.500000000, A.D. 2024-Jul-06 00:00:00.0000, 2.395910014377137E+08, -4.034777638659962E+08, 6.005497067111549E+07,
2460504.500000000, A.D. 2024-Jul-13 00:00:00.0000, 2.475578316995222E+08, -3.976716238891114E+08, 6.086760694046032E+07,
2460511.500000000, A.D. 2024-Jul-20 00:00:00.0000, 2.554106218007680E+08, -3.916823676173359E+08, 6.165220708126506E+07,
2460518.500000000, A.D. 2024-Jul-27 00:00:00.0000, 2.631452142986731E+08, -3.855119220158598E+08, 6.240827904114735E+07,
2460525.500000000, A.D. 2024-Aug-03 00:00:00.0000, 2.707574612380590E+08, -3.791623062280994E+08, 6.313533788930105E+07,
2460532.500000000, A.D. 2024-Aug-10 00:00:00.0000, 2.782432257684664E+08, -3.726356327173286E+08, 6.383290614609300E+07,
2460539.500000000, A.D. 2024-Aug-17 00:00:00.0000, 2.855983838324078E+08, -3.659341084820774E+08, 6.450051411711524E+07,
2460546.500000000, A.D. 2024-Aug-24 00:00:00.0000, 2.928188259547356E+08, -3.590600363637660E+08, 6.513770022704883E+07,
2460553.500000000, A.D. 2024-Aug-31 00:00:00.0000, 2.999004592510968E+08, -3.520158165040237E+08, 6.574401133742540E+07,
2460560.500000000, A.D. 2024-Sep-07 00:00:00.0000, 3.068392100238345E+08, -3.448039478214778E+08, 6.631900302503914E+07,
2460567.500000000, A.D. 2024-Sep-14 00:00:00.0000, 3.136310270336967E+08, -3.374270285092231E+08, 6.686223989494752E+07,
2460574.500000000, A.D. 2024-Sep-21 00:00:00.0000, 3.202718834207232E+08, -3.298877551381153E+08, 6.737329614828092E+07,
2460581.500000000, A.D. 2024-Sep-28 00:00:00.0000, 3.267577767875525E+08, -3.221889235899843E+08, 6.785175618559942E+07,
2460588.500000000, A.D. 2024-Oct-05 00:00:00.0000, 3.330847311157501E+08, -3.143334318139674E+08, 6.829721490883419E+07,
2460595.500000000, A.D. 2024-Oct-12 00:00:00.0000, 3.392488001565526E+08, -3.063242814212484E+08, 6.870927799841081E+07,
2460602.500000000, A.D. 2024-Oct-19 00:00:00.0000, 3.452460705468907E+08, -2.981645783851013E+08, 6.908756230424616E+07,
2460609.500000000, A.D. 2024-Oct-26 00:00:00.0000, 3.510726646192600E+08, -2.898575336434418E+08, 6.943169628814468E+07,
2460616.500000000, A.D. 2024-Nov-02 00:00:00.0000, 3.567247431629875E+08, -2.814064637474788E+08, 6.974132048162580E+07,
2460623.500000000, A.D. 2024-Nov-09 00:00:00.0000, 3.621985082330982E+08, -2.728147915301898E+08, 7.001608795143732E+07,
2460630.500000000, A.D. 2024-Nov-16 00:00:00.0000, 3.674902060320371E+08, -2.640860467878371E+08, 7.025566476951310E+07,
2460637.500000000, A.D. 2024-Nov-23 00:00:00.0000, 3.725961299107896E+08, -2.552238670170687E+08, 7.045973047799230E+07,
2460644.500000000, A.D. 2024-Nov-30 00:00:00.0000, 3.775126236980932E+08, -2.462319982424142E+08, 7.062797852592127E+07,
2460651.500000000, A.D. 2024-Dec-07 00:00:00.0000, 3.822360857788548E+08, -2.371142955061218E+08, 7.076011667346214E+07,
2460658.500000000, A.D. 2024-Dec-14 00:00:00.0000, 3.867629732357441E+08, -2.278747217908064E+08, 7.085586752765261E+07,
2460665.500000000, A.D. 2024-Dec-21 00:00:00.0000, 3.910898037364757E+08, -2.185173466119497E+08, 7.091496932181209E+07,
2460672.500000000, A.D. 2024-Dec-28 00:00:00.0000, 3.952131571371573E+08, -2.090463472425755E+08, 7.093717651477224E+07,
2460679.500000000, A.D. 2025-Jan-04 00:00:00.0000, 3.991296793962736E+08, -1.994660101867260E+08, 7.092226016498092E+07,
2460686.500000000, A.D. 2025-Jan-11 00:00:00.0000, 4.028360869763811E+08, -1.897807312346995E+08, 7.087000838165218E+07,
2460693.500000000, A.D. 2025-Jan-18 00:00:00.0000, 4.063291708147650E+08, -1.799950150119913E+08, 7.078022686153477E+07,
2460700.500000000, A.D. 2025-Jan-25 00:00:00.0000, 4.096058001041480E+08, -1.701134744894302E+08, 7.065273944959792E+07,
2460707.500000000, A.D. 2025-Feb-01 00:00:00.0000, 4.126629260701646E+08, -1.601408304773954E+08, 7.048738870313580E+07,
2460714.500000000, A.D. 2025-Feb-08 00:00:00.0000, 4.154975858009011E+08, -1.500819110771827E+08, 7.028403645485388E+07,
$$EOE